[{"OBJECT_NAME":"STARLINK-31210","OBJECT_ID":"2024-038L","EPOCH":"2026-03-09T06:33:39.084192","MEAN_MOTION":15.27570671,"ECCENTRICITY":0.00013321,"INCLINATION":43.0051,"RA_OF_ASC_NODE":25.9971,"ARG_OF_PERICENTER":270.8721,"MEAN_ANOMALY":89.1978,"EPHEMERIS_TYPE":0,"CLASSIFICATION_TYPE":"U","NORAD_CAT_ID":59033,"ELEMENT_SET_NO":999,"REV_AT_EPOCH":11479,"BSTAR":-3.467489e-5,"MEAN_MOTION_DOT":-1.216e-5,"MEAN_MOTION_DDOT":0},{"OBJECT_NAME":"COSMOS 886 DEB","OBJECT_ID":"1976-126M","EPOCH":"2026-03-09T22:12:52.532928","MEAN_MOTION":13.82653067,"ECCENTRICITY":0.06461963,"INCLINATION":65.7873,"RA_OF_ASC_NODE":333.1273,"ARG_OF_PERICENTER":140.6509,"MEAN_ANOMALY":224.3408,"EPHEMERIS_TYPE":0,"CLASSIFICATION_TYPE":"U","NORAD_CAT_ID":9655,"ELEMENT_SET_NO":999,"REV_AT_EPOCH":37570,"BSTAR":0.00072487394,"MEAN_MOTION_DOT":4.06e-5,"MEAN_MOTION_DDOT":0}]
